NORAD_CAT_ID,OBJECT_NAME,OBJECT_TYPE,EPOCH,MEAN_MOTION,ECCENTRICITY,INCLINATION,RA_OF_ASC_NODE,ARG_OF_PERICENTER,MEAN_ANOMALY,BSTAR,MEAN_MOTION_DOT,MEAN_MOTION_DDOT,TLE_LINE0,TLE_LINE1,TLE_LINE2,SEMIMAJOR_AXIS,PERIOD,APOGEE,PERIGEE,DECAYED
51758.0,STARLINK-3458,PAYLOAD,2023-09-26 13:13:22,15.08828709,0.0001319,53.2172,7.5012,94.2588,265.8554,-0.00021637,-3.729e-05,0.0,0 STARLINK-3458,1 51758U 22016AW  23269.55094920 -.00003729  00000-0 -21637-3 0  9998,2 51758  53.2172   7.5012 0001319  94.2588 265.8554 15.08828709 89711,6917.915,95.438,540.692,538.867,0.0
51758.0,STARLINK-3458,PAYLOAD,2023-09-27 09:53:23,15.0883618,0.0001503,53.2179,3.6428,94.4684,265.648,0.00043966,6.715e-05,0.0,0 STARLINK-3458,1 51758U 22016AW  23270.41207659  .00006715  00000-0  43966-3 0  9995,2 51758  53.2179   3.6428 0001503  94.4684 265.6480 15.08836180 89842,6917.892,95.438,540.797,538.717,0.0
51758.0,STARLINK-3458,PAYLOAD,2023-09-27 13:04:09,15.08844961,0.0001593,53.2179,3.0431,89.4892,270.6283,0.00080431,0.00012537,0.0,0 STARLINK-3458,1 51758U 22016AW  23270.54455657  .00012537  00000-0  80431-3 0  9999,2 51758  53.2179   3.0431 0001593  89.4892 270.6283 15.08844961 89869,6917.865,95.437,540.832,538.628,0.0
51758.0,STARLINK-3458,PAYLOAD,2023-09-28 11:19:33,15.08840174,0.0001273,53.2173,358.8847,90.8633,269.2505,0.00025966,3.847e-05,0.0,0 STARLINK-3458,1 51758U 22016AW  23271.47191951  .00003847  00000-0  25966-3 0  9992,2 51758  53.2173 358.8847 0001273  90.8633 269.2505 15.08840174 90000,6917.88,95.438,540.626,538.864,0.0
51758.0,STARLINK-3458,PAYLOAD,2023-09-29 11:10:20,15.08843619,0.0001276,53.2169,354.4226,85.5537,274.5601,0.00012809,1.751e-05,0.0,0 STARLINK-3458,1 51758U 22016AW  23272.46551820  .00001751  00000-0  12809-3 0  9991,2 51758  53.2169 354.4226 0001276  85.5537 274.5601 15.08843619 90154,6917.869,95.437,540.617,538.852,0.0
51758.0,STARLINK-3458,PAYLOAD,2023-09-29 23:53:25,15.0884721,0.0001403,53.2174,352.0449,86.6283,273.4869,0.00020379,2.957e-05,0.0,0 STARLINK-3458,1 51758U 22016AW  23272.99543602  .00002957  00000-0  20379-3 0  9998,2 51758  53.2174 352.0449 0001403  86.6283 273.4869 15.08847210 90237,6917.858,95.437,540.694,538.753,0.0
51758.0,STARLINK-3458,PAYLOAD,2023-10-01 10:51:54,15.08842295,0.0001827,53.2176,345.5033,77.8519,282.2678,-1.8676e-05,-5.85e-06,0.0,0 STARLINK-3458,1 51758U 22016AW  23274.45271223 -.00000585  00000-0 -18676-4 0  9993,2 51758  53.2176 345.5033 0001827  77.8519 282.2678 15.08842295 90457,6917.873,95.437,541.002,538.474,0.0
51758.0,STARLINK-3458,PAYLOAD,2023-10-01 12:27:17,15.08846659,0.0001627,53.2172,345.2055,78.2432,281.8743,6.2667e-05,7.1e-06,0.0,0 STARLINK-3458,1 51758U 22016AW  23274.51894952  .00000710  00000-0  62667-4 0  9997,2 51758  53.2172 345.2055 0001627  78.2432 281.8743 15.08846659 90468,6917.86,95.437,540.851,538.599,0.0
51758.0,STARLINK-3458,PAYLOAD,2023-10-01 14:02:40,15.08848325,0.0001678,53.2175,344.9073,76.1117,284.0062,9.9008e-05,1.288e-05,0.0,0 STARLINK-3458,1 51758U 22016AW  23274.58518896  .00001288  00000-0  99008-4 0  9994,2 51758  53.2175 344.9073 0001678  76.1117 284.0062 15.08848325 90472,6917.855,95.437,540.881,538.559,0.0
51758.0,STARLINK-3458,PAYLOAD,2023-10-02 12:18:05,15.08830548,0.0001528,53.2166,340.7453,91.412,268.7048,-0.00013883,-2.496e-05,0.0,0 STARLINK-3458,1 51758U 22016AW  23275.51255939 -.00002496  00000-0 -13883-3 0  9994,2 51758  53.2166 340.7453 0001528  91.4120 268.7048 15.08830548 90613,6917.909,95.438,540.831,538.717,0.0
51758.0,STARLINK-3458,PAYLOAD,2023-10-02 13:53:28,15.08835437,0.0001516,53.2163,340.4464,90.8029,269.3137,-1.8128e-05,-5.76e-06,0.0,0 STARLINK-3458,1 51758U 22016AW  23275.57879780 -.00000576  00000-0 -18128-4 0  9991,2 51758  53.2163 340.4464 0001516  90.8029 269.3137 15.08835437 90626,6917.894,95.438,540.808,538.711,0.0
51758.0,STARLINK-3458,PAYLOAD,2023-10-03 10:33:28,15.08847391,0.0001528,53.2156,336.5807,89.179,270.9377,0.0004942,7.588e-05,0.0,0 STARLINK-3458,1 51758U 22016AW  23276.43991891  .00007588  00000-0  49420-3 0  9991,2 51758  53.2156 336.5807 0001528  89.1790 270.9377 15.08847391 90754,6917.858,95.437,540.78,538.666,0.0
51758.0,STARLINK-3458,PAYLOAD,2023-10-04 04:02:43,15.08846523,0.0001706,53.2156,333.3114,92.0921,268.0267,0.00029705,4.444e-05,0.0,0 STARLINK-3458,1 51758U 22016AW  23277.16855995  .00004444  00000-0  29705-3 0  9998,2 51758  53.2156 333.3114 0001706  92.0921 268.0267 15.08846523 90861,6917.86,95.437,540.906,538.545,0.0
51758.0,STARLINK-3458,PAYLOAD,2023-10-04 10:24:16,15.08847012,0.000161,53.2165,332.1213,92.963,267.1546,0.00028823,4.303e-05,0.0,0 STARLINK-3458,1 51758U 22016AW  23277.43351903  .00004303  00000-0  28823-3 0  9992,2 51758  53.2165 332.1213 0001610  92.9630 267.1546 15.08847012 90907,6917.859,95.437,540.838,538.61,0.0
51758.0,STARLINK-3458,PAYLOAD,2023-10-05 03:53:30,15.08842768,0.0001609,53.2168,328.8482,95.6229,264.4947,2.6609e-05,1.36e-06,0.0,0 STARLINK-3458,1 51758U 22016AW  23278.16215942  .00000136  00000-0  26609-4 0  9996,2 51758  53.2168 328.8482 0001609  95.6229 264.4947 15.08842768 91013,6917.872,95.437,540.85,538.624,0.0
51758.0,STARLINK-3458,PAYLOAD,2023-10-05 13:25:49,15.08850834,0.0001511,53.2162,327.0652,85.3926,274.7239,0.00025121,3.713e-05,0.0,0 STARLINK-3458,1 51758U 22016AW  23278.55959791  .00003713  00000-0  25121-3 0  9997,2 51758  53.2162 327.0652 0001511  85.3926 274.7239 15.08850834 91076,6917.847,95.437,540.758,538.667,0.0
51758.0,STARLINK-3458,PAYLOAD,2023-10-05 19:47:22,15.08841332,0.000155,53.2159,325.8726,82.3679,277.7489,9.1368e-05,1.166e-05,0.0,0 STARLINK-3458,1 51758U 22016AW  23278.82456025  .00001166  00000-0  91368-4 0  9996,2 51758  53.2159 325.8726 0001550  82.3679 277.7489 15.08841332 91113,6917.876,95.437,540.814,538.669,0.0
51758.0,STARLINK-3458,PAYLOAD,2023-10-06 03:44:18,15.08834315,0.0001431,53.2162,324.3895,88.9186,271.197,-5.3482e-06,-3.73e-06,0.0,0 STARLINK-3458,1 51758U 22016AW  23279.15576422 -.00000373  00000-0 -53482-5 0  9994,2 51758  53.2162 324.3895 0001431  88.9186 271.1970 15.08834315 91162,6917.898,95.438,540.753,538.773,0.0
51758.0,STARLINK-3458,PAYLOAD,2023-10-06 10:05:50,15.08847312,0.0001558,53.2166,323.2004,91.7899,268.3271,0.00015368,2.159e-05,0.0,0 STARLINK-3458,1 51758U 22016AW  23279.42071860  .00002159  00000-0  15368-3 0  9991,2 51758  53.2166 323.2004 0001558  91.7899 268.3271 15.08847312 91207,6917.858,95.437,540.801,538.645,0.0
51758.0,STARLINK-3458,PAYLOAD,2023-10-06 19:38:09,15.08838574,0.0001527,53.2163,321.4163,89.5064,270.6103,6.712e-05,7.8e-06,0.0,0 STARLINK-3458,1 51758U 22016AW  23279.81816254  .00000780  00000-0  67120-4 0  9990,2 51758  53.2163 321.4163 0001527  89.5064 270.6103 15.08838574 91261,6917.885,95.438,540.806,538.693,0.0
51758.0,STARLINK-3458,PAYLOAD,2023-10-07 09:56:37,15.08841345,0.0001629,53.217,318.7414,93.3971,266.7208,0.00013224,1.817e-05,0.0,0 STARLINK-3458,1 51758U 22016AW  23280.41432362  .00001817  00000-0  13224-3 0  9999,2 51758  53.2170 318.7414 0001629  93.3971 266.7208 15.08841345 91352,6917.876,95.437,540.868,538.614,0.0
51758.0,STARLINK-3458,PAYLOAD,2023-10-07 19:28:56,15.08845268,0.0001416,53.2159,316.9544,84.0644,276.0509,8.938e-05,1.135e-05,0.0,0 STARLINK-3458,1 51758U 22016AW  23280.81176053  .00001135  00000-0  89380-4 0  9995,2 51758  53.2159 316.9544 0001416  84.0644 276.0509 15.08845268 91414,6917.864,95.437,540.709,538.75,0.0
51758.0,STARLINK-3458,PAYLOAD,2023-10-08 03:25:52,15.0883026,0.0001636,53.2171,315.4687,93.5593,266.5586,-3.3192e-05,-8.16e-06,0.0,0 STARLINK-3458,1 51758U 22016AW  23281.14297009 -.00000816  00000-0 -33192-4 0  9994,2 51758  53.2171 315.4687 0001636  93.5593 266.5586 15.08830260 91462,6917.91,95.438,540.907,538.643,0.0
51758.0,STARLINK-3458,PAYLOAD,2023-10-08 08:12:01,15.08836332,0.0001772,53.2173,314.5753,92.629,267.4906,1.8784e-05,1.1e-07,0.0,0 STARLINK-3458,1 51758U 22016AW  23281.34168803  .00000011  00000-0  18784-4 0  9990,2 51758  53.2173 314.5753 0001772  92.6290 267.4906 15.08836332 91498,6917.892,95.438,540.982,538.531,0.0
51758.0,STARLINK-3458,PAYLOAD,2023-10-08 19:19:43,15.08843765,0.0001795,53.2175,312.4946,89.4151,270.7047,9.0987e-05,1.16e-05,0.0,0 STARLINK-3458,1 51758U 22016AW  23281.80536567  .00001160  00000-0  90987-4 0  9998,2 51758  53.2175 312.4946 0001795  89.4151 270.7047 15.08843765 91565,6917.869,95.437,540.976,538.492,0.0
51758.0,STARLINK-3458,PAYLOAD,2023-10-09 11:13:34,15.08854364,0.000185,53.2171,309.5199,90.7082,269.4123,0.00053001,8.16e-05,0.0,0 STARLINK-3458,1 51758U 22016AW  23282.46776329  .00008160  00000-0  53001-3 0  9995,2 51758  53.2171 309.5199 0001850  90.7082 269.4123 15.08854364 91666,6917.836,95.437,540.981,538.422,0.0
51758.0,STARLINK-3458,PAYLOAD,2023-10-10 01:32:03,15.08844826,0.0001932,53.2166,306.8452,86.9106,273.2108,0.00023345,3.43e-05,0.0,0 STARLINK-3458,1 51758U 22016AW  23283.06392697  .00003430  00000-0  23345-3 0  9997,2 51758  53.2166 306.8452 0001932  86.9106 273.2108 15.08844826 91755,6917.866,95.437,541.067,538.394,0.0
51758.0,STARLINK-3458,PAYLOAD,2023-10-10 07:53:35,15.08847465,0.0001793,53.2162,305.6545,89.6682,270.4516,0.00033169,4.996e-05,0.0,0 STARLINK-3458,1 51758U 22016AW  23283.32888600  .00004996  00000-0  33169-3 0  9993,2 51758  53.2162 305.6545 0001793  89.6682 270.4516 15.08847465 91793,6917.858,95.437,540.963,538.482,0.0
51758.0,STARLINK-3458,PAYLOAD,2023-10-10 19:01:17,15.08864166,0.0001923,53.2173,303.5727,91.7608,268.3604,0.00077331,0.00012049,0.0,0 STARLINK-3458,1 51758U 22016AW  23283.79256034  .00012049  00000-0  77331-3 0  9991,2 51758  53.2173 303.5727 0001923  91.7608 268.3604 15.08864166 91860,6917.807,95.436,541.002,538.341,0.0
51758.0,STARLINK-3458,PAYLOAD,2023-10-11 04:33:35,15.0887113,0.0001951,53.2169,301.7895,91.0727,269.0489,0.00086277,0.00013481,0.0,0 STARLINK-3458,1 51758U 22016AW  23284.18999477  .00013481  00000-0  86277-3 0  9990,2 51758  53.2169 301.7895 0001951  91.0727 269.0489 15.08871130 91922,6917.785,95.436,541.0,538.301,0.0
